{
    "links": {
        "self": "http://www.neowsapp.com/rest/v1/neo/3837848?api_key=iIulBulltgU6a56xZRHN4H3l9WmuAYTsLGpBGhQ2"
    },
    "id": "3837848",
    "neo_reference_id": "3837848",
    "name": "(2019 AD11)",
    "designation": "2019 AD11",
    "nasa_jpl_url": "http://ssd.jpl.nasa.gov/sbdb.cgi?sstr=3837848",
    "absolute_magnitude_h": 21.4,
    "estimated_diameter": {
        "kilometers": {
            "estimated_diameter_min": 0.1394938229,
            "estimated_diameter_max": 0.3119176705
        },
        "meters": {
            "estimated_diameter_min": 139.4938229344,
            "estimated_diameter_max": 311.9176705226
        },
        "miles": {
            "estimated_diameter_min": 0.0866774163,
            "estimated_diameter_max": 0.1938165949
        },
        "feet": {
            "estimated_diameter_min": 457.6569140361,
            "estimated_diameter_max": 1023.3519701574
        }
    },
    "is_potentially_hazardous_asteroid": false,
    "close_approach_data": [
        {
            "close_approach_date": "2011-01-13",
            "close_approach_date_full": "2011-Jan-13 14:01",
            "epoch_date_close_approach": 1294927260000,
            "relative_velocity": {
                "kilometers_per_second": "20.7048491205",
                "kilometers_per_hour": "74537.4568337096",
                "miles_per_hour": "46314.6769975903"
            },
            "miss_distance": {
                "astronomical": "0.2525919205",
                "lunar": "98.2582570745",
                "kilometers": "37787213.286009335",
                "miles": "23479885.559165423"
            },
            "orbiting_body": "Earth"
        },
        {
            "close_approach_date": "2019-01-19",
            "close_approach_date_full": "2019-Jan-19 11:05",
            "epoch_date_close_approach": 1547895900000,
            "relative_velocity": {
                "kilometers_per_second": "21.3583326851",
                "kilometers_per_hour": "76889.9976665112",
                "miles_per_hour": "47776.4543833941"
            },
            "miss_distance": {
                "astronomical": "0.1770420757",
                "lunar": "68.8693674473",
                "kilometers": "26485117.425098759",
                "miles": "16457088.8426065142"
            },
            "orbiting_body": "Earth"
        },
        {
            "close_approach_date": "2027-01-26",
            "close_approach_date_full": "2027-Jan-26 15:20",
            "epoch_date_close_approach": 1800976800000,
            "relative_velocity": {
                "kilometers_per_second": "23.8973531682",
                "kilometers_per_hour": "86030.4714053436",
                "miles_per_hour": "53455.989301837"
            },
            "miss_distance": {
                "astronomical": "0.3760719745",
                "lunar": "146.2919980805",
                "kilometers": "56259566.351894315",
                "miles": "34958073.503658947"
            },
            "orbiting_body": "Earth"
        }
    ],
    "orbital_data": {
        "orbit_id": "2",
        "orbit_determination_date": "2019-02-02 07:24:47",
        "first_observation_date": "2019-01-10",
        "last_observation_date": "2019-02-01",
        "data_arc_in_days": 22,
        "observations_used": 47,
        "orbit_uncertainty": "7",
        "minimum_orbit_intersection": ".166127",
        "jupiter_tisserand_invariant": "3.566",
        "epoch_osculation": "2459000.5",
        "eccentricity": ".4155934616140428",
        "semi_major_axis": "1.930536545038073",
        "inclination": "38.23871054213992",
        "ascending_node_longitude": "119.0678665953309",
        "orbital_period": "979.7504411798883",
        "perihelion_distance": "1.128218179513286",
        "perihelion_argument": "338.0937588787351",
        "aphelion_distance": "2.73285491056286",
        "perihelion_time": "2459464.707402053607",
        "mean_anomaly": "189.4313962869496",
        "mean_motion": ".3674405081833504",
        "equinox": "J2000",
        "orbit_class": {
            "orbit_class_type": "AMO",
            "orbit_class_description": "Near-Earth asteroid orbits similar to that of 1221 Amor",
            "orbit_class_range": "1.017 AU < q (perihelion) < 1.3 AU"
        }
    },
    "is_sentry_object": false
}